NORAD_CAT_ID,OBJECT_NAME,OBJECT_TYPE,EPOCH,MEAN_MOTION,ECCENTRICITY,INCLINATION,RA_OF_ASC_NODE,ARG_OF_PERICENTER,MEAN_ANOMALY,BSTAR,MEAN_MOTION_DOT,MEAN_MOTION_DDOT,TLE_LINE0,TLE_LINE1,TLE_LINE2,SEMIMAJOR_AXIS,PERIOD,APOGEE,PERIGEE,DECAYED
53263.0,STARLINK-4130,PAYLOAD,2023-04-04 00:39:09,15.08848433,9.73e-05,53.2155,320.5146,71.8725,288.2373,0.00060857,9.413e-05,0.0,0 STARLINK-4130,1 53263U 22086X   23094.02719174  .00009413  00000-0  60857-3 0  9992,2 53263  53.2155 320.5146 0000973  71.8725 288.2373 15.08848433 39438,6917.855,95.437,540.393,539.047,0.0
53263.0,STARLINK-4130,PAYLOAD,2023-04-04 21:19:10,15.08847421,0.0001008,53.2149,316.6476,72.4133,287.6969,0.00043865,6.702e-05,0.0,0 STARLINK-4130,1 53263U 22086X   23094.88831161  .00006702  00000-0  43865-3 0  9995,2 53263  53.2149 316.6476 0001008  72.4133 287.6969 15.08847421 39567,6917.858,95.437,540.42,539.025,0.0
53263.0,STARLINK-4130,PAYLOAD,2023-04-05 00:29:56,15.08849186,0.0001032,53.2149,316.0528,74.1455,285.9651,0.00042456,6.477e-05,0.0,0 STARLINK-4130,1 53263U 22086X   23095.02079078  .00006477  00000-0  42456-3 0  9997,2 53263  53.2149 316.0528 0001032  74.1455 285.9651 15.08849186 39404,6917.852,95.437,540.431,539.003,0.0
53263.0,STARLINK-4130,PAYLOAD,2023-04-05 21:09:57,15.08839315,0.0001003,53.2147,312.185,82.6981,277.4125,8.8959e-05,1.128e-05,0.0,0 STARLINK-4130,1 53263U 22086X   23095.88191387  .00001128  00000-0  88959-4 0  9996,2 53263  53.2147 312.1850 0001003  82.6981 277.4125 15.08839315 39532,6917.882,95.438,540.441,539.054,0.0
53263.0,STARLINK-4130,PAYLOAD,2023-04-06 00:20:43,15.08841007,9.99e-05,53.2146,311.5923,79.6817,280.4288,0.00011375,1.523e-05,0.0,0 STARLINK-4130,1 53263U 22086X   23096.01439387  .00001523  00000-0  11375-3 0  9993,2 53263  53.2146 311.5923 0000999  79.6817 280.4288 15.08841007 39739,6917.877,95.437,540.433,539.051,0.0
53263.0,STARLINK-4130,PAYLOAD,2023-04-06 21:00:44,15.08844236,9.84e-05,53.2144,307.7267,87.5013,272.6092,-3.0899e-06,-3.37e-06,0.0,0 STARLINK-4130,1 53263U 22086X   23096.87551268 -.00000337  00000-0 -30899-5 0  9998,2 53263  53.2144 307.7267 0000984  87.5013 272.6092 15.08844236 39862,6917.867,95.437,540.413,539.052,0.0
53263.0,STARLINK-4130,PAYLOAD,2023-04-07 00:11:31,15.088334,0.0001102,53.2142,307.1318,94.5892,265.5226,0.00056751,8.754e-05,0.0,0 STARLINK-4130,1 53263U 22086X   23097.00799979  .00008754  00000-0  56751-3 0  9999,2 53263  53.2142 307.1318 0001102  94.5892 265.5226 15.08833400 39701,6917.901,95.438,540.528,539.003,0.0
53263.0,STARLINK-4130,PAYLOAD,2023-04-08 00:02:17,15.08844842,0.0001065,53.214,302.6709,85.3181,274.7932,0.00014093,1.956e-05,0.0,0 STARLINK-4130,1 53263U 22086X   23098.00159200  .00001956  00000-0  14093-3 0  9997,2 53263  53.2140 302.6709 0001065  85.3181 274.7932 15.08844842 40036,6917.866,95.437,540.467,538.994,0.0
53263.0,STARLINK-4130,PAYLOAD,2023-04-08 17:31:32,15.08836091,0.0001191,53.2095,299.4004,97.6127,262.5,-3.427e-06,-3.42e-06,0.0,0 STARLINK-4130,1 53263U 22086X   23098.73023739 -.00000342  00000-0 -34270-5 0  9995,2 53263  53.2095 299.4004 0001191  97.6127 262.5000 15.08836091 39960,6917.892,95.438,540.581,538.933,0.0
53263.0,STARLINK-4130,PAYLOAD,2023-04-08 23:53:05,15.08840481,0.000109,53.2141,298.2099,81.6866,278.425,6.7102e-05,7.8e-06,0.0,0 STARLINK-4130,1 53263U 22086X   23098.99519855  .00000780  00000-0  67102-4 0  9995,2 53263  53.2141 298.2099 0001090  81.6866 278.4250 15.08840481 40181,6917.879,95.438,540.498,538.99,0.0
53263.0,STARLINK-4130,PAYLOAD,2023-04-09 17:22:19,15.08836906,0.0001297,53.2159,294.9379,76.466,283.6477,0.0001428,1.985e-05,0.0,0 STARLINK-4130,1 53263U 22086X   23099.72383982  .00001985  00000-0  14280-3 0  9993,2 53263  53.2159 294.9379 0001297  76.4660 283.6477 15.08836906 40295,6917.89,95.438,540.652,538.858,0.0
53263.0,STARLINK-4130,PAYLOAD,2023-04-09 18:57:42,15.08838029,0.0001354,53.2162,294.6406,75.5295,284.5848,0.00015424,2.168e-05,0.0,0 STARLINK-4130,1 53263U 22086X   23099.79007938  .00002168  00000-0  15424-3 0  9999,2 53263  53.2162 294.6406 0001354  75.5295 284.5848 15.08838029 40127,6917.886,95.438,540.688,538.815,0.0
53263.0,STARLINK-4130,PAYLOAD,2023-04-10 06:05:24,15.08837047,0.0001189,53.2154,292.5588,85.8704,274.2423,0.00010261,1.345e-05,0.0,0 STARLINK-4130,1 53263U 22086X   23100.25375961  .00001345  00000-0  10261-3 0  9997,2 53263  53.2154 292.5588 0001189  85.8704 274.2423 15.08837047 40372,6917.889,95.438,540.577,538.932,0.0
53263.0,STARLINK-4130,PAYLOAD,2023-04-10 18:48:29,15.0884741,0.0001132,53.2152,290.1797,87.9475,272.1647,0.00020108,2.914e-05,0.0,0 STARLINK-4130,1 53263U 22086X   23100.78367511  .00002914  00000-0  20108-3 0  9991,2 53263  53.2152 290.1797 0001132  87.9475 272.1647 15.08847410 40451,6917.858,95.437,540.506,538.94,0.0
53263.0,STARLINK-4130,PAYLOAD,2023-04-11 05:56:11,15.08839451,0.0001139,53.2138,288.0975,93.8645,266.2477,6.4469e-05,7.38e-06,0.0,0 STARLINK-4130,1 53263U 22086X   23101.24735807  .00000738  00000-0  64469-4 0  9991,2 53263  53.2138 288.0975 0001139  93.8645 266.2477 15.08839451 40340,6917.882,95.438,540.535,538.959,0.0
53263.0,STARLINK-4130,PAYLOAD,2023-04-11 12:17:44,15.08838777,0.0001365,53.2132,286.9095,83.3764,276.7384,5.0987e-05,5.24e-06,0.0,0 STARLINK-4130,1 53263U 22086X   23101.51231840  .00000524  00000-0  50987-4 0  9992,2 53263  53.2132 286.9095 0001365  83.3764 276.7384 15.08838777 40568,6917.884,95.438,540.693,538.805,0.0
53263.0,STARLINK-4130,PAYLOAD,2023-04-11 18:39:16,15.08843545,0.0001374,53.2131,285.7224,81.1769,278.9379,3.3072e-05,2.38e-06,0.0,0 STARLINK-4130,1 53263U 22086X   23101.77727660  .00000238  00000-0  33072-4 0  9998,2 53263  53.2131 285.7224 0001374  81.1769 278.9379 15.08843545 40601,6917.87,95.437,540.685,538.784,0.0
53263.0,STARLINK-4130,PAYLOAD,2023-04-12 12:08:31,15.08838594,0.0001435,53.2133,282.4504,80.5305,279.5849,8.26e-05,1.027e-05,0.0,0 STARLINK-4130,1 53263U 22086X   23102.50592074  .00001027  00000-0  82600-4 0  9997,2 53263  53.2133 282.4504 0001435  80.5305 279.5849 15.08838594 40534,6917.885,95.438,540.742,538.757,0.0
53263.0,STARLINK-4130,PAYLOAD,2023-04-12 23:16:13,15.08844355,0.0001538,53.2126,280.3667,91.3807,268.7361,0.00015104,2.117e-05,0.0,0 STARLINK-4130,1 53263U 22086X   23102.96959723  .00002117  00000-0  15104-3 0  9990,2 53263  53.2126 280.3667 0001538  91.3807 268.7361 15.08844355 40782,6917.867,95.437,540.796,538.668,0.0
53263.0,STARLINK-4130,PAYLOAD,2023-04-14 03:53:10,15.08835587,0.0001821,53.2116,275.0163,85.7787,274.3413,8.7718e-05,1.108e-05,0.0,0 STARLINK-4130,1 53263U 22086X   23104.16192402  .00001108  00000-0  87718-4 0  9997,2 53263  53.2116 275.0163 0001821  85.7787 274.3413 15.08835587 40780,6917.894,95.438,541.019,538.499,0.0
53263.0,STARLINK-4130,PAYLOAD,2023-04-14 11:50:05,15.08841573,0.0001552,53.2136,273.528,95.8207,264.2962,4.8988e-05,4.92e-06,0.0,0 STARLINK-4130,1 53263U 22086X   23104.49312076  .00000492  00000-0  48988-4 0  9995,2 53263  53.2136 273.5280 0001552  95.8207 264.2962 15.08841573 41011,6917.876,95.437,540.814,538.667,0.0
53263.0,STARLINK-4130,PAYLOAD,2023-04-14 21:22:23,15.08847883,0.0001196,53.2149,271.7439,92.2417,267.8712,0.00011091,1.478e-05,0.0,0 STARLINK-4130,1 53263U 22086X   23104.89055501  .00001478  00000-0  11091-3 0  9995,2 53263  53.2149 271.7439 0001196  92.2417 267.8712 15.08847883 40896,6917.856,95.437,540.549,538.894,0.0
53263.0,STARLINK-4130,PAYLOAD,2023-04-15 11:40:52,15.0884647,0.0001344,53.2144,269.0681,81.0099,279.1046,-3.9338e-05,-9.14e-06,0.0,0 STARLINK-4130,1 53263U 22086X   23105.48671851 -.00000914  00000-0 -39338-4 0  9994,2 53263  53.2144 269.0681 0001344  81.0099 279.1046 15.08846470 40984,6917.861,95.437,540.655,538.796,0.0
53263.0,STARLINK-4130,PAYLOAD,2023-04-15 19:37:47,15.08848436,0.0001049,53.2156,267.5813,86.0089,274.1023,0.00018824,2.71e-05,0.0,0 STARLINK-4130,1 53263U 22086X   23105.81791478  .00002710  00000-0  18824-3 0  9999,2 53263  53.2156 267.5813 0001049  86.0089 274.1023 15.08848436 41214,6917.855,95.437,540.445,538.994,0.0
53263.0,STARLINK-4130,PAYLOAD,2023-04-16 03:34:44,15.08838056,0.0001331,53.2137,266.0952,87.8338,272.2806,-7.0004e-06,-3.99e-06,0.0,0 STARLINK-4130,1 53263U 22086X   23106.14912065 -.00000399  00000-0 -70004-5 0  9996,2 53263  53.2137 266.0952 0001331  87.8338 272.2806 15.08838056 41081,6917.886,95.438,540.672,538.831,0.0
53263.0,STARLINK-4130,PAYLOAD,2023-04-16 13:07:02,15.08838239,0.0001026,53.2149,264.3116,87.6934,272.4175,3.3966e-05,2.53e-06,0.0,0 STARLINK-4130,1 53263U 22086X   23106.54656078  .00000253  00000-0  33966-4 0  9991,2 53263  53.2149 264.3116 0001026  87.6934 272.4175 15.08838239 41329,6917.886,95.438,540.461,539.041,0.0
53263.0,STARLINK-4130,PAYLOAD,2023-04-16 19:28:35,15.08845543,0.000102,53.2145,263.121,79.2663,280.8444,9.5348e-05,1.23e-05,0.0,0 STARLINK-4130,1 53263U 22086X   23106.81151669  .00001230  00000-0  95348-4 0  9995,2 53263  53.2145 263.1210 0001020  79.2663 280.8444 15.08845543 41369,6917.863,95.437,540.434,539.023,0.0
53263.0,STARLINK-4130,PAYLOAD,2023-04-17 03:25:30,15.08838978,8.19e-05,53.2151,261.6333,78.219,281.8894,3.2547e-05,2.3e-06,0.0,0 STARLINK-4130,1 53263U 22086X   23107.14271906  .00000230  00000-0  32547-4 0  9990,2 53263  53.2151 261.6333 0000819  78.2190 281.8894 15.08838978 41414,6917.884,95.438,540.315,539.182,0.0
53263.0,STARLINK-4130,PAYLOAD,2023-04-17 19:19:22,15.08847196,0.0001214,53.2161,258.6598,73.6121,286.5004,0.00015443,2.171e-05,0.0,0 STARLINK-4130,1 53263U 22086X   23107.80511846  .00002171  00000-0  15443-3 0  9994,2 53263  53.2161 258.6598 0001214  73.6121 286.5004 15.08847196 41515,6917.858,95.437,540.563,538.884,0.0
53263.0,STARLINK-4130,PAYLOAD,2023-04-18 09:37:51,15.08825819,4.26e-05,53.2148,255.9836,74.1611,285.9428,-0.00013046,-2.362e-05,0.0,0 STARLINK-4130,1 53263U 22086X   23108.40128610 -.00002362  00000-0 -13046-3 0  9995,2 53263  53.2148 255.9836 0000426  74.1611 285.9428 15.08825819 41420,6917.924,95.438,540.083,539.494,0.0
